HORUS 1                 
1 55690U 23025A   26199.28707816  .00002825  00000+0  12111-3 0  9998
2 55690  97.3449 273.2281 0002997 108.8030 251.3532 15.23556146188786
HORUS 2                 
1 55844U 23032A   26199.25732867  .00002800  00000+0  12076-3 0  9991
2 55844  97.3521 274.0326 0001298 137.5052 222.6286 15.23362086186214
GLOBAL-19               
1 55982U 23041B   26198.87175460  .00008117  00000+0  21372-3 0  9997
2 55982  42.0021  22.8522 0009957 235.1182 124.8722 15.38726760186650
ION SCV-010             
1 56192U 23054Q   26199.16939613  .00002327  00000+0  91890-4 0  9996
2 56192  97.3734  88.2736 0014651  95.0476 265.2436 15.26439256180921
TELEOS-2                
1 56310U 23057C   26198.94895572  .00001544  00000+0  73599-4 0  9997
2 56310   9.9895 340.1991 0000526 274.5866  85.4287 14.96380977177413
SNIPE 4                 
1 56744U 23072B   26199.27884819  .00012355  00000+0  27775-3 0  9990
2 56744  97.5225  46.2927 0005069 193.7452 166.3658 15.43472731174902
SNIPE 2                 
1 56745U 23072C   26199.29211174  .00016047  00000+0  30510-3 0  9994
2 56745  97.5214  49.5741 0003502 219.7072 140.3922 15.48331261175058
2023-072G               
1 56749U 23072G   26199.28051105  .00018019  00000+0  29824-3 0  9990
2 56749  97.4872  48.4037 0002737 193.4471 166.6709 15.52248635175283
GEISAT PRECURSOR        
1 56934U 23084C   26199.31671390  .00003547  00000+0  10687-3 0  9994
2 56934  97.6264 341.3099 0004731 216.9268 143.1649 15.35034383172307
BLACKJACK ACES-3        
1 56950U 23084U   26198.94124397  .00002683  00000+0  13236-3 0  9993
2 56950  97.6251 334.3776 0000946 209.0477 151.0704 15.18803381171834
BLACKJACK ACES-2        
1 56955U 23084Z   26198.94728626  .00003295  00000+0  16201-3 0  9998
2 56955  97.6249 334.4672 0001791 135.7063 224.4315 15.18754646171840
BLACKJACK ACES-1        
1 56956U 23084AA  26199.33006647  .00003531  00000+0  17333-3 0  9995
2 56956  97.6239 334.6246 0002168 115.8330 244.3128 15.18761324121629
ION SCV-011             
1 56957U 23084AB  26199.08676769  .00002721  00000+0  99423-4 0  9997
2 56957  98.1381  29.2357 0005866 293.7118  66.3504 15.29113389170530
GHOST-3                 
1 56958U 23084AC  26198.98982566  .00010849  00000+0  20320-3 0  9990
2 56958  97.6253 349.2425 0006891 175.6794 184.4517 15.48851444172788
AFR-1                   
1 56964U 23084AJ  26199.32474954  .00002400  00000+0  88538-4 0  9993
2 56964  97.6315 336.7773 0009479 222.6457 137.4047 15.28792067171985
METEOR-M2 3             
1 57166U 23091A   26199.29489997 -.00000012  00000+0  13718-4 0  9991
2 57166  98.6066 253.6338 0005130  83.3942 276.7821 14.24049107158942
UMKA 1 (RS40S)          
1 57172U 23091G   26199.27765915  .00002929  00000+0  13448-3 0  9990
2 57172  97.5030 257.8591 0012728  19.1570 341.0141 15.21140293168735
2023-091H               
1 57173U 23091H   26199.26962447  .00005766  00000+0  20567-3 0  9991
2 57173  97.5027 262.7244 0009261  14.7357 345.4151 15.29253050169053
2023-091J               
1 57174U 23091J   26199.31708703  .00001691  00000+0  96262-4 0  9990
2 57174  97.5040 251.9703 0014172  46.2897 313.9506 15.14123063168344
CUBEBEL 2 (EU11S)       
1 57175U 23091K   26199.25893525  .00006619  00000+0  23130-3 0  9999
2 57175  97.5029 262.7668 0009214  16.0857 344.0674 15.29865847169053
SITRO-AIS 5 (KATYS)     
1 57176U 23091L   26199.20508276  .00006067  00000+0  21066-3 0  9994
2 57176  97.5040 263.4115 0010342   1.7442 358.3832 15.30102887169084
ZORKIY-2M 1             
1 57177U 23091M   26199.26180886  .00003354  00000+0  15292-3 0  9994
2 57177  97.5071 258.1334 0013097  15.9802 344.1844 15.21271370168720
CUBESX-HSE 3 (RS42S)    
1 57178U 23091N   26199.20715384  .00006961  00000+0  22813-3 0  9990
2 57178  97.5070 265.2000 0009342 350.9253   9.1818 15.31927309169179
MONITOR-3 (RS58S)       
1 57180U 23091Q   26199.30162371  .00005012  00000+0  18375-3 0  9990
2 57180  97.5062 262.9860 0010659 358.5630   1.5577 15.28406416169048
MONITOR-4 (RS57S)       
1 57182U 23091S   26199.27894425  .00005196  00000+0  18988-3 0  9993
2 57182  97.5056 262.9360 0010675 359.0382   1.0835 15.28493473169047
MONITOR-2 (RS39S)       
1 57184U 23091U   26199.27274715  .00002244  00000+0  10988-3 0  9992
2 57184  97.5052 257.3570 0011085  13.6729 346.4804 15.19169578168676
SVYATOBOR 1 (RS60S)     
1 57187U 23091X   26199.25418369  .00004525  00000+0  17301-3 0  9998
2 57187  97.5069 263.2509 0008424 353.5378   6.5751 15.27091556169051
HORS 1                  
1 57188U 23091Y   26199.30294588  .00004677  00000+0  17808-3 0  9990
2 57188  97.5046 263.0584 0007873 353.4620   6.6515 15.27212600169069
VIZARD-METEO (RS38S)    
1 57189U 23091Z   26199.21206392  .00008986  00000+0  25104-3 0  9992
2 57189  97.5071 269.3378 0005414 326.7967  33.2936 15.36930363169453
SITRO-AIS 6 (CHIRKIN)   
1 57192U 23091AC  26199.19120293  .00005091  00000+0  19780-3 0  9995
2 57192  97.5047 262.3493 0010855   6.1277 354.0092 15.26468784169010
