OBJECT_NAME,OBJECT_ID,EPOCH,MEAN_MOTION,ECCENTRICITY,INCLINATION,RA_OF_ASC_NODE,ARG_OF_PERICENTER,MEAN_ANOMALY,EPHEMERIS_TYPE,CLASSIFICATION_TYPE,NORAD_CAT_ID,ELEMENT_SET_NO,REV_AT_EPOCH,BSTAR,MEAN_MOTION_DOT,MEAN_MOTION_DDOT
HORUS 1,2023-025A,2026-07-18T06:53:23.553024,15.23556146,.00029972,97.3449,273.2281,108.8030,251.3532,0,U,55690,999,18878,.12111119E-3,.2825E-4,0
HORUS 2,2023-032A,2026-07-18T06:10:33.197088,15.23362086,.00012984,97.3521,274.0326,137.5052,222.6286,0,U,55844,999,18621,.12076012E-3,.28E-4,0
GLOBAL-19,2023-041B,2026-07-17T20:55:19.597440,15.38726760,.00099572,42.0021,22.8522,235.1182,124.8722,0,U,55982,999,18665,.21372374E-3,.8117E-4,0
ION SCV-010,2023-054Q,2026-07-18T04:03:55.825632,15.26439256,.00146518,97.3734,88.2736,95.0476,265.2436,0,U,56192,999,18092,.91890207E-4,.2327E-4,0
TELEOS-2,2023-057C,2026-07-17T22:46:29.774208,14.96380977,.00005262,9.9895,340.1991,274.5866,85.4287,0,U,56310,999,17741,.73599141E-4,.1544E-4,0
SNIPE 4,2023-072B,2026-07-18T06:41:32.483616,15.43472731,.0005069,97.5225,46.2927,193.7452,166.3658,0,U,56744,999,17490,.27775263E-3,.12355E-3,0
SNIPE 2,2023-072C,2026-07-18T07:00:38.454336,15.48331261,.00035023,97.5214,49.5741,219.7072,140.3922,0,U,56745,999,17505,.30509678E-3,.16047E-3,0
2023-072G,2023-072G,2026-07-18T06:43:56.154720,15.52248635,.0002737,97.4872,48.4037,193.4471,166.6709,0,U,56749,999,17528,.2982442E-3,.18019E-3,0
GEISAT PRECURSOR,2023-084C,2026-07-18T07:36:04.080960,15.35034383,.00047316,97.6264,341.3099,216.9268,143.1649,0,U,56934,999,17230,.10686967E-3,.3547E-4,0
BLACKJACK ACES-3,2023-084U,2026-07-17T22:35:23.479008,15.18803381,.00009466,97.6251,334.3776,209.0477,151.0704,0,U,56950,999,17183,.13236241E-3,.2683E-4,0
BLACKJACK ACES-2,2023-084Z,2026-07-17T22:44:05.532864,15.18754646,.00017915,97.6249,334.4672,135.7063,224.4315,0,U,56955,999,17184,.16201054E-3,.3295E-4,0
BLACKJACK ACES-1,2023-084AA,2026-07-18T07:55:17.743008,15.18761324,.00021681,97.6239,334.6246,115.8330,244.3128,0,U,56956,999,12162,.17333032E-3,.3531E-4,0
ION SCV-011,2023-084AB,2026-07-18T02:04:56.728416,15.29113389,.00058663,98.1381,29.2357,293.7118,66.3504,0,U,56957,999,17053,.9942282E-4,.2721E-4,0
GHOST-3,2023-084AC,2026-07-17T23:45:20.937024,15.48851444,.00068918,97.6253,349.2425,175.6794,184.4517,0,U,56958,999,17278,.20320134E-3,.10849E-3,0
AFR-1,2023-084AJ,2026-07-18T07:47:38.360256,15.28792067,.00094791,97.6315,336.7773,222.6457,137.4047,0,U,56964,999,17198,.88538381E-4,.24E-4,0
METEOR-M2 3,2023-091A,2026-07-18T07:04:39.357408,14.24049107,.00051302,98.6066,253.6338,83.3942,276.7821,0,U,57166,999,15894,.13718012E-4,-.12E-6,0
UMKA 1 (RS40S),2023-091G,2026-07-18T06:39:49.750560,15.21140293,.00127288,97.5030,257.8591,19.1570,341.0141,0,U,57172,999,16873,.13448283E-3,.2929E-4,0
2023-091H,2023-091H,2026-07-18T06:28:15.554208,15.29253050,.00092617,97.5027,262.7244,14.7357,345.4151,0,U,57173,999,16905,.20566591E-3,.5766E-4,0
2023-091J,2023-091J,2026-07-18T07:36:36.319392,15.14123063,.00141727,97.5040,251.9703,46.2897,313.9506,0,U,57174,999,16834,.96261795E-4,.1691E-4,0
CUBEBEL 2 (EU11S),2023-091K,2026-07-18T06:12:52.005600,15.29865847,.00092145,97.5029,262.7668,16.0857,344.0674,0,U,57175,999,16905,.23129769E-3,.6619E-4,0
SITRO-AIS 5 (KATYS),2023-091L,2026-07-18T04:55:19.150464,15.30102887,.00103429,97.5040,263.4115,1.7442,358.3832,0,U,57176,999,16908,.21065584E-3,.6067E-4,0
ZORKIY-2M 1,2023-091M,2026-07-18T06:17:00.285504,15.21271370,.00130979,97.5071,258.1334,15.9802,344.1844,0,U,57177,999,16872,.15292402E-3,.3354E-4,0
CUBESX-HSE 3 (RS42S),2023-091N,2026-07-18T04:58:18.091776,15.31927309,.00093423,97.5070,265.2000,350.9253,9.1818,0,U,57178,999,16917,.22813287E-3,.6961E-4,0
MONITOR-3 (RS58S),2023-091Q,2026-07-18T07:14:20.288544,15.28406416,.00106597,97.5062,262.9860,358.5630,1.5577,0,U,57180,999,16904,.18375221E-3,.5012E-4,0
MONITOR-4 (RS57S),2023-091S,2026-07-18T06:41:40.783200,15.28493473,.00106759,97.5056,262.9360,359.0382,1.0835,0,U,57182,999,16904,.18988416E-3,.5196E-4,0
MONITOR-2 (RS39S),2023-091U,2026-07-18T06:32:45.353760,15.19169578,.00110856,97.5052,257.3570,13.6729,346.4804,0,U,57184,999,16867,.10987573E-3,.2244E-4,0
SVYATOBOR 1 (RS60S),2023-091X,2026-07-18T06:06:01.470816,15.27091556,.00084245,97.5069,263.2509,353.5378,6.5751,0,U,57187,999,16905,.17301472E-3,.4525E-4,0
HORS 1,2023-091Y,2026-07-18T07:16:14.524032,15.27212600,.00078734,97.5046,263.0584,353.4620,6.6515,0,U,57188,999,16906,.17808463E-3,.4677E-4,0
VIZARD-METEO (RS38S),2023-091Z,2026-07-18T05:05:22.322688,15.36930363,.00054142,97.5071,269.3378,326.7967,33.2936,0,U,57189,999,16945,.25103734E-3,.8986E-4,0
SITRO-AIS 6 (CHIRKIN),2023-091AC,2026-07-18T04:35:19.933152,15.26468784,.00108555,97.5047,262.3493,6.1277,354.0092,0,U,57192,999,16901,.1978001E-3,.5091E-4,0
